EUTELSAT-65-WEST-A------
1 41382U 16014A   23039.83382865 -.00000267  00000+0  00000+0 0  9994
2 41382   0.0871 304.9393 0002025  24.0777  44.6238  1.00271491 25260
IRNSS-1F----------------
1 41384U 16015A   23039.88590937  .00000167  00000+0  00000+0 0  9991
2 41384   2.5375 140.8194 0023609 184.0981 165.1134  1.00275088 25382
BEIDOU-IGSO-6-----------
1 41434U 16021A   23039.49467229 -.00000126  00000+0  00000+0 0  9994
2 41434  58.4422  50.3962 0049090 225.1703 137.0902  1.00279760 25203
IRNSS-1G----------------
1 41469U 16027A   23039.83823062 -.00000327  00000+0  00000+0 0  9990
2 41469   2.4463 143.0275 0004290 265.7334 161.1965  1.00268573 24908
JCSAT-2B----------------
1 41471U 16028A   23039.69960359 -.00000157  00000+0  00000+0 0  9990
2 41471   0.0175  96.6088 0001162 212.2380 235.5148  1.00274030 24840
THAICOM-8---------------
1 41552U 16031A   23039.74204117 -.00000114  00000+0  00000+0 0  9996
2 41552   0.0674  59.7067 0003143 314.8442 109.6377  1.00274270 24447
INTELSAT-31-(IS-31)-----
1 41581U 16035A   23039.86516457 -.00000142  00000+0  00000+0 0  9999
2 41581   0.0404 257.5907 0002172 315.0327 142.4547  1.00270388 24414
BEIDOU-2-G7-------------
1 41586U 16037A   23039.86854940 -.00000346  00000+0  00000+0 0  9994
2 41586   1.9097  70.6327 0007859 345.9572 145.1970  1.00277975 24518
ABS-2A-(MONGOLSAT-1)----
1 41588U 16038A   23039.77795942 -.00000075  00000+0  00000+0 0  9992
2 41588   0.0217 119.6074 0000933 102.1424 271.6665  1.00265362 24425
EUTELSAT-117-WEST-B-----
1 41589U 16038B   23039.64564852 -.00000003  00000+0  00000+0 0  9994
2 41589   0.0145 241.6448 0000279 215.2393 157.0012  1.00273295 24394
BRISAT------------------
1 41591U 16039A   23039.59410247 -.00000189  00000+0  00000+0 0  9995
2 41591   0.0178 105.8131 0002359 220.9388 176.0479  1.00268887 24367
ECHOSTAR-18-------------
1 41592U 16039B   23039.44159546 -.00000274  00000+0  00000+0 0  9997
2 41592   0.0151  92.3242 0001533 222.6426 280.9244  1.00272113 24347
MUOS-5------------------
1 41622U 16041A   23039.86324694 -.00000113  00000+0  00000+0 0  9990
2 41622   5.0569 299.1785 0193692 242.5385 162.6781  1.00272460 24810
TIANTONG-1-1------------
1 41725U 16048A   23039.88868740 -.00000309  00000+0  00000+0 0  9995
2 41725   2.2588   9.2406 0008091 336.7537 214.0548  1.00271111 23990
JCSAT-16----------------
1 41729U 16050A   23039.74907997 -.00000246  00000+0  00000+0 0  9995
2 41729   0.0428  95.2579 0003708 194.2167 211.7546  1.00271860 23796
USA-270-----------------
1 41744U 16052A   23038.57923368 -.00000092  00000+0  00000+0 0  9993
2 41744   1.0448  93.0293 0000315  64.7849 342.8202  1.00560453  6452
USA-271-----------------
1 41745U 16052B   23038.53489911 -.00000009  00000+0  00000+0 0  9999
2 41745   1.0130  92.9611 0010002 280.7115  23.5987  1.00276024  6443
INTELSAT-36-(IS-36)-----
1 41747U 16053A   23039.39574672 -.00000017  00000+0  00000+0 0  9995
2 41747   0.0118  59.3019 0001000 291.1894 358.6784  1.00270920 23666
INTELSAT-33E-(IS-33E)---
1 41748U 16053B   23039.73704668  .00000058  00000+0  00000+0 0  9998
2 41748   0.0155  97.0080 0001622 227.9054 138.9935  1.00268856 23976
INSAT-3DR---------------
1 41752U 16054A   23039.74098068 -.00000069  00000+0  00000+0 0  9998
2 41752   0.0646  98.4115 0013385 178.7415 202.1407  1.00272094 23543
GSAT-18-----------------
1 41793U 16060A   23039.46852944 -.00000069  00000+0  00000+0 0  9990
2 41793   0.0357  96.7445 0002052 204.7918  79.4283  1.00271876 23253
SKY-MUSTER-2-(NBN1B)----
1 41794U 16060B   23039.84128139 -.00000237  00000+0  00000+0 0  9992
2 41794   0.0143 111.7008 0001611 220.1753 254.4566  1.00267575 23248
HIMAWARI-9--------------
1 41836U 16064A   23039.84040976 -.00000267  00000+0  00000+0 0  9998
2 41836   0.0053 295.3590 0001301  60.4917 226.1165  1.00272061 22913
SHIJIAN-17-(SJ-17)------
1 41838U 16065A   23039.94702087 -.00000256  00000+0  00000+0 0  9998
2 41838   2.6237  87.0776 0003897 270.2115 216.6360  1.00272101 22930
GOES-16-----------------
1 41866U 16071A   23039.84494031 -.00000239  00000+0  00000+0 0  9993
2 41866   0.0782 268.9897 0000772  74.1978  24.4616  1.00271929 22834
TIANLIAN-1-04-----------
1 41869U 16072A   23039.84764444  .00000039  00000+0  00000+0 0  9992
2 41869   0.1280  93.3527 0020305  38.2470 129.0020  1.00270750 23038
WGS-F8-(USA-272)--------
1 41879U 16075A   23037.90587470 -.00000197  00000+0  00000+0 0  9999
2 41879   0.0171  81.5208 0000279 163.5317   7.6367  1.00272643 22624
FENGYUN-4A--------------
1 41882U 16077A   23039.96160378 -.00000321  00000+0  00000+0 0  9996
2 41882   0.1202  79.8503 0004918 339.2192 170.5014  1.00267024 22704
ECHOSTAR-19-------------
1 41893U 16079A   23039.86481591 -.00000130  00000+0  00000+0 0  9990
2 41893   0.0148  97.5891 0001652 228.7619  26.5596  1.00271736 22439
JCSAT-110A-(JCSAT-15)---
1 41903U 16082A   23039.40402740 -.00000343  00000+0  00000+0 0  9991
2 41903   0.0256 108.5749 0001352 205.0579  80.1307  1.00268640 22476
STAR-ONE-D1-------------
1 41904U 16082B   23039.86743086 -.00000202  00000+0  00000+0 0  9997
2 41904   0.0241  85.5698 0002127 235.1988  46.1894  1.00272383 22491
TJS-2-------------------
1 41911U 17001A   23039.79506156  .00000002  00000+0  00000+0 0  9991
2 41911   0.1444  79.2753 0003886 150.7087 261.3232  1.00273761 22456
SBIRS-GEO-4-(USA-273)---
1 41937U 17004A   23039.70893024  .00000139  00000+0  00000+0 0  9997
2 41937   1.9147 325.6891 0002340 350.6958 277.9537  1.00272494 22325
HISPASAT-36W-1----------
1 41942U 17006A   23039.73351076 -.00000236  00000+0  00000+0 0  9993
2 41942   0.0419 290.5366 0001009  23.5250  52.5542  1.00272073 21945
TELKOM-3S---------------
1 41944U 17007A   23039.86854940 -.00000354  00000+0  00000+0 0  9999
2 41944   0.0130 106.9476 0002165 207.7922 254.6138  1.00270472 21863
INTELSAT-32E-(IS-32E)---
1 41945U 17007B   23039.82271419 -.00000260  00000+0  00000+0 0  9996
2 41945   0.0136  95.3785 0000074 262.3031  33.9354  1.00269208 21952
ECHOSTAR-23-------------
1 42070U 17014A   23039.64146603 -.00000049  00000+0  00000+0 0  9995
2 42070   0.0159  89.8537 0001918 231.2760 298.3539  1.00271240 21649
WGS-F9-(USA-275)--------
1 42075U 17016A   23039.66656810 -.00000088  00000+0  00000+0 0  9993
2 42075   0.0161 117.2786 0000430 229.6351  19.5202  1.00271351 21614
SES-10------------------
1 42432U 17017A   23039.83382865 -.00000264  00000+0  00000+0 0  9992
2 42432   0.0171  78.4804 0002853 240.7157  52.7270  1.00269437 21469
CHINASAT-16-(SJ-13)-----
1 42662U 17018A   23039.90613207 -.00000344  00000+0  00000+0 0  9992
2 42662   0.0723  91.7649 0006533 167.8549 315.8465  1.00272879 21468
KOREASAT-7--------------
1 42691U 17023A   23039.65281773 -.00000354  00000+0  00000+0 0  9992
2 42691   0.0172  28.0393 0001026 329.1720 132.1798  1.00265889 21106
SGDC--------------------
1 42692U 17023B   23039.82273039 -.00000241  00000+0  00000+0 0  9993
2 42692   0.0224  88.2389 0002259 235.2006  36.5450  1.00269143 21133
GSAT-9------------------
1 42695U 17024A   23039.89563080 -.00000278  00000+0  00000+0 0  9992
2 42695   0.0896 271.4930 0002048  31.6448 255.2952  1.00274587 21037
INMARSAT-5-F4-----------
1 42698U 17025A   23039.27410627  .00000083  00000+0  00000+0 0  9999
2 42698   0.0152  90.5286 0000488 208.4096 354.3260  1.00270603 20978
SES-15------------------
1 42709U 17026A   23039.71494462  .00000068  00000+0  00000+0 0  9994
2 42709   0.0222   6.2466 0000384 319.1411 301.3669  1.00270674 21861
QZS-2-(MICHIBIKI-2)-----
1 42738U 17028A   23039.48012235 -.00000101  00000+0  00000+0 0  9995
2 42738  41.3798 260.8176 0749999 269.9930 281.7528  1.00271875 20863
VIASAT-2----------------
1 42740U 17029A   23039.83938299 -.00000257  00000+0  00000+0 0  9997
2 42740   0.0369 253.0611 0000359 229.2467 248.6238  1.00274653 20906
EUTELSAT-172B-----------
1 42741U 17029B   23039.84668563  .00000002  00000+0  00000+0 0  9990
2 42741   0.0498 152.4142 0000203 232.1260 230.9178  1.00271367 21449
GSAT-19-----------------
1 42747U 17031A   23039.67850969  .00000133  00000+0  00000+0 0  9998
2 42747   0.0137 107.1212 0002591 284.3512  39.1649  1.00273757 20852
ECHOSTAR-21-------------
1 42749U 17032A   23039.90952144  .00000076  00000+0  00000+0 0  9991
2 42749   3.4911 312.4237 0002368   4.6780 159.2976  1.00272622 20836
BULGARIASAT-1-----------
1 42801U 17038A   23039.79494103  .00000019  00000+0  00000+0 0  9996
2 42801   0.0063  72.6320 0002599 245.6231 108.4183  1.00271091 20541
HELLAS-SAT-3------------
1 42814U 17040A   23039.46146907  .00000160  00000+0  00000+0 0  9990
2 42814   0.0484   5.3399 0004600 343.2154 354.8905  1.00276278 20535
GSAT-17-----------------
1 42815U 17040B   23039.89563080 -.00000249  00000+0  00000+0 0  9992
2 42815   0.0393  99.3002 0005808 183.3949 271.9377  1.00271120 20516
INTELSAT-35E-(IS-35E)---
1 42818U 17041A   23039.21577368 -.00000231  00000+0  00000+0 0  9997
2 42818   0.0136  99.1839 0002084 229.8635 212.1460  1.00269796 20539
COSMOS-2520-------------
1 42907U 17046A   23039.95605150  .00000145  00000+0  00000+0 0  9996
2 42907   0.0328 118.1100 0000713 194.2365 215.6166  1.00273354 20116
TDRS-13-----------------
1 42915U 17047A   23039.73830481 -.00000090  00000+0  00000+0 0  9999
2 42915   4.1592 336.0656 0014118 106.1194 310.5136  1.00271946 20078
QZS-3-(MICHIBIKI-3)-----
1 42917U 17048A   23039.83770764 -.00000340  00000+0  00000+0 0  9998
2 42917   0.0625 205.5976 0002079 131.2748 230.3507  1.00267928 19988
AMAZONAS-5--------------
1 42934U 17053A   23039.44159546 -.00000274  00000+0  00000+0 0  9995
2 42934   0.0506 308.6849 0005136  11.1005 276.4395  1.00269098 19793
ASIASAT-9---------------
1 42942U 17057A   23038.25897970 -.00000355  00000+0  00000+0 0  9996
2 42942   0.0255 104.4308 0002570 202.3259  45.6594  1.00268883 19641
INTELSAT-37E-(IS-37E)---
1 42950U 17059A   23039.66534779 -.00000133  00000+0  00000+0 0  9992
2 42950   0.0219 115.3813 0002551 202.4762  42.1563  1.00267825 19789
